ORBCOMM-X [-]           
1 21576U 91050C   23244.65850645  .00000383  00000+0  12955-3 0  9998
2 21576  98.4295 311.0470 0003841  21.3388 338.7961 14.42155917687969
ORBCOMM FM01 [-]        
1 23545U 95017A   23244.73418675  .00004234  00000+0  62086-3 0  9994
2 23545  69.9664 246.2686 0007698 247.3240 112.7094 14.76251039515875
ORBCOMM FM02 [-]        
1 23546U 95017B   23244.75666239  .00004750  00000+0  70450-3 0  9995
2 23546  69.9683 265.1619 0009125 238.5444 121.4811 14.75666636515481
ORBCOMM FM08 [-]        
1 25112U 97084A   23244.45804925  .00001401  00000+0  47435-3 0  9992
2 25112  45.0147 258.2385 0007720 202.3778 157.6735 14.41157505346956
ORBCOMM FM10 [-]        
1 25113U 97084B   23244.73029485  .00001190  00000+0  40993-3 0  9991
2 25113  45.0159 258.6377 0004389 183.6816 176.4002 14.41104180346987
ORBCOMM FM11 [+]        
1 25114U 97084C   23244.45170418  .00001184  00000+0  40902-3 0  9997
2 25114  45.0144 259.8431 0005096 179.0165 181.0695 14.40993311346934
ORBCOMM FM12 [-]        
1 25115U 97084D   23244.40768498  .00001211  00000+0  41741-3 0  9997
2 25115  45.0149 259.6897 0004229 185.4340 174.6464 14.40990174346696
ORBCOMM FM09 [-]        
1 25116U 97084E   23244.41395664  .00001198  00000+0  41373-3 0  9995
2 25116  45.0156 260.2844 0004624 160.5669 199.5358 14.40970011346902
